STARLINK-33867          
1 63795U 25091W   25279.13850638  .00029556  00000+0  10779-2 0  9998
2 63795  43.0038 205.5174 0002033 257.3967 102.6658 15.27620660 25269
STARLINK-33918          
1 63796U 25091X   25279.13979319  .00034591  00000+0  12598-2 0  9993
2 63796  43.0027 205.5317 0001698 283.2701  76.7961 15.27602148 25312
STARLINK-33712          
1 63797U 25091Y   25279.19954249  .00038988  00000+0  14176-2 0  9993
2 63797  43.0033 208.6426 0001369 253.2111 106.8590 15.27609696 25231
STARLINK-33827          
1 63798U 25091Z   25278.08204325  .00028721  00000+0  10487-2 0  9999
2 63798  43.0039 211.3519 0001879 279.7798  80.2842 15.27593599 25107
STARLINK-33899          
1 63799U 25091AA  25279.12051559  .00055917  00000+0  20246-2 0  9996
2 63799  43.0044 205.3811 0001830 274.0981  85.9661 15.27605526 25375
STARLINK-33900          
1 63800U 25091AB  25279.50898646  .00025026  00000+0  91593-3 0  9999
2 63800  42.9982 203.1353 0000422  60.6082 299.4811 15.27578222 25439
STARLINK-33975          
1 63802U 25091AC  25279.16791373  .00031483  00000+0  11484-2 0  9996
2 63802  43.0005 204.8738 0001308 281.9460  78.1245 15.27589939 25380
STARLINK-33951          
1 63803U 25091AD  25279.49996557  .00050461  00000+0  18265-2 0  9995
2 63803  43.0044 203.0665 0001719 265.0404  95.0252 15.27656093 25372
STARLINK-33909          
1 63804U 25092A   25279.40309858  .00022814  00000+0  83655-3 0  9997
2 63804  43.0031 324.3009 0001357 282.0692  78.0008 15.27557957 25014
STARLINK-34029          
1 63805U 25092B   25279.39795841  .00027385  00000+0  10011-2 0  9990
2 63805  43.0023 324.2599 0001106 273.9388  86.1337 15.27576735 25012
STARLINK-34102          
1 63806U 25092C   25279.39667919  .00036581  00000+0  13307-2 0  9994
2 63806  43.0026 324.2559 0002387 280.7287  79.3296 15.27616136 25061
STARLINK-34109          
1 63807U 25092D   25279.41963794  .00032778  00000+0  11944-2 0  9997
2 63807  43.0011 323.5583 0000883 323.1122  36.9669 15.27606389 25022
STARLINK-34091          
1 63808U 25092E   25278.20302690  .00031717  00000+0  11572-2 0  9995
2 63808  42.9994 330.7689 0000420  79.4832 280.6067 15.27577655 24880
STARLINK-34095          
1 63809U 25092F   25279.40181184  .00024406  00000+0  89343-3 0  9991
2 63809  43.0053 324.2921 0002354 269.2417  90.8165 15.27580690 25011
STARLINK-34127          
1 63810U 25092G   25279.42736630  .00041341  00000+0  15030-2 0  9995
2 63810  43.0008 323.6158 0000719 256.8075 103.2696 15.27589117 25025
STARLINK-34110          
1 63811U 25092H   25279.12612580  .00026154  00000+0  95598-3 0  9993
2 63811  43.0015 325.6605 0001288 276.4892  83.5813 15.27600851 25020
