[{"OBJECT_NAME":"STARLINK-33867","OBJECT_ID":"2025-091W","EPOCH":"2025-10-06T03:19:26.951232","MEAN_MOTION":15.2762066,"ECCENTRICITY":0.0002033,"INCLINATION":43.0038,"RA_OF_ASC_NODE":205.5174,"ARG_OF_PERICENTER":257.3967,"MEAN_ANOMALY":102.6658,"EPHEMERIS_TYPE":0,"CLASSIFICATION_TYPE":"U","NORAD_CAT_ID":63795,"ELEMENT_SET_NO":999,"REV_AT_EPOCH":2526,"BSTAR":0.0010779,"MEAN_MOTION_DOT":0.00029556,"MEAN_MOTION_DDOT":0},{"OBJECT_NAME":"STARLINK-33918","OBJECT_ID":"2025-091X","EPOCH":"2025-10-06T03:21:18.131616","MEAN_MOTION":15.27602148,"ECCENTRICITY":0.0001698,"INCLINATION":43.0027,"RA_OF_ASC_NODE":205.5317,"ARG_OF_PERICENTER":283.2701,"MEAN_ANOMALY":76.7961,"EPHEMERIS_TYPE":0,"CLASSIFICATION_TYPE":"U","NORAD_CAT_ID":63796,"ELEMENT_SET_NO":999,"REV_AT_EPOCH":2531,"BSTAR":0.0012598,"MEAN_MOTION_DOT":0.00034591,"MEAN_MOTION_DDOT":0},{"OBJECT_NAME":"STARLINK-33712","OBJECT_ID":"2025-091Y","EPOCH":"2025-10-06T04:47:20.471136","MEAN_MOTION":15.27609696,"ECCENTRICITY":0.0001369,"INCLINATION":43.0033,"RA_OF_ASC_NODE":208.6426,"ARG_OF_PERICENTER":253.2111,"MEAN_ANOMALY":106.859,"EPHEMERIS_TYPE":0,"CLASSIFICATION_TYPE":"U","NORAD_CAT_ID":63797,"ELEMENT_SET_NO":999,"REV_AT_EPOCH":2523,"BSTAR":0.0014176,"MEAN_MOTION_DOT":0.00038988,"MEAN_MOTION_DDOT":0},{"OBJECT_NAME":"STARLINK-33827","OBJECT_ID":"2025-091Z","EPOCH":"2025-10-05T01:58:08.536800","MEAN_MOTION":15.27593599,"ECCENTRICITY":0.0001879,"INCLINATION":43.0039,"RA_OF_ASC_NODE":211.3519,"ARG_OF_PERICENTER":279.7798,"MEAN_ANOMALY":80.2842,"EPHEMERIS_TYPE":0,"CLASSIFICATION_TYPE":"U","NORAD_CAT_ID":63798,"ELEMENT_SET_NO":999,"REV_AT_EPOCH":2510,"BSTAR":0.0010487,"MEAN_MOTION_DOT":0.00028721,"MEAN_MOTION_DDOT":0},{"OBJECT_NAME":"STARLINK-33899","OBJECT_ID":"2025-091AA","EPOCH":"2025-10-06T02:53:32.546976","MEAN_MOTION":15.27605526,"ECCENTRICITY":0.000183,"INCLINATION":43.0044,"RA_OF_ASC_NODE":205.3811,"ARG_OF_PERICENTER":274.0981,"MEAN_ANOMALY":85.9661,"EPHEMERIS_TYPE":0,"CLASSIFICATION_TYPE":"U","NORAD_CAT_ID":63799,"ELEMENT_SET_NO":999,"REV_AT_EPOCH":2537,"BSTAR":0.0020246,"MEAN_MOTION_DOT":0.00055917,"MEAN_MOTION_DDOT":0},{"OBJECT_NAME":"STARLINK-33900","OBJECT_ID":"2025-091AB","EPOCH":"2025-10-06T12:12:56.430144","MEAN_MOTION":15.27578222,"ECCENTRICITY":4.22e-5,"INCLINATION":42.9982,"RA_OF_ASC_NODE":203.1353,"ARG_OF_PERICENTER":60.6082,"MEAN_ANOMALY":299.4811,"EPHEMERIS_TYPE":0,"CLASSIFICATION_TYPE":"U","NORAD_CAT_ID":63800,"ELEMENT_SET_NO":999,"REV_AT_EPOCH":2543,"BSTAR":0.00091593,"MEAN_MOTION_DOT":0.00025026,"MEAN_MOTION_DDOT":0},{"OBJECT_NAME":"STARLINK-33975","OBJECT_ID":"2025-091AC","EPOCH":"2025-10-06T04:01:47.746272","MEAN_MOTION":15.27589939,"ECCENTRICITY":0.0001308,"INCLINATION":43.0005,"RA_OF_ASC_NODE":204.8738,"ARG_OF_PERICENTER":281.946,"MEAN_ANOMALY":78.1245,"EPHEMERIS_TYPE":0,"CLASSIFICATION_TYPE":"U","NORAD_CAT_ID":63802,"ELEMENT_SET_NO":999,"REV_AT_EPOCH":2538,"BSTAR":0.0011484,"MEAN_MOTION_DOT":0.00031483,"MEAN_MOTION_DDOT":0},{"OBJECT_NAME":"STARLINK-33951","OBJECT_ID":"2025-091AD","EPOCH":"2025-10-06T11:59:57.025248","MEAN_MOTION":15.27656093,"ECCENTRICITY":0.0001719,"INCLINATION":43.0044,"RA_OF_ASC_NODE":203.0665,"ARG_OF_PERICENTER":265.0404,"MEAN_ANOMALY":95.0252,"EPHEMERIS_TYPE":0,"CLASSIFICATION_TYPE":"U","NORAD_CAT_ID":63803,"ELEMENT_SET_NO":999,"REV_AT_EPOCH":2537,"BSTAR":0.0018265,"MEAN_MOTION_DOT":0.00050461,"MEAN_MOTION_DDOT":0},{"OBJECT_NAME":"STARLINK-33909","OBJECT_ID":"2025-092A","EPOCH":"2025-10-06T09:40:27.717312","MEAN_MOTION":15.27557957,"ECCENTRICITY":0.0001357,"INCLINATION":43.0031,"RA_OF_ASC_NODE":324.3009,"ARG_OF_PERICENTER":282.0692,"MEAN_ANOMALY":78.0008,"EPHEMERIS_TYPE":0,"CLASSIFICATION_TYPE":"U","NORAD_CAT_ID":63804,"ELEMENT_SET_NO":999,"REV_AT_EPOCH":2501,"BSTAR":0.00083655,"MEAN_MOTION_DOT":0.00022814,"MEAN_MOTION_DDOT":0},{"OBJECT_NAME":"STARLINK-34029","OBJECT_ID":"2025-092B","EPOCH":"2025-10-06T09:33:03.606624","MEAN_MOTION":15.27576735,"ECCENTRICITY":0.0001106,"INCLINATION":43.0023,"RA_OF_ASC_NODE":324.2599,"ARG_OF_PERICENTER":273.9388,"MEAN_ANOMALY":86.1337,"EPHEMERIS_TYPE":0,"CLASSIFICATION_TYPE":"U","NORAD_CAT_ID":63805,"ELEMENT_SET_NO":999,"REV_AT_EPOCH":2501,"BSTAR":0.0010011,"MEAN_MOTION_DOT":0.00027385,"MEAN_MOTION_DDOT":0},{"OBJECT_NAME":"STARLINK-34102","OBJECT_ID":"2025-092C","EPOCH":"2025-10-06T09:31:13.082016","MEAN_MOTION":15.27616136,"ECCENTRICITY":0.0002387,"INCLINATION":43.0026,"RA_OF_ASC_NODE":324.2559,"ARG_OF_PERICENTER":280.7287,"MEAN_ANOMALY":79.3296,"EPHEMERIS_TYPE":0,"CLASSIFICATION_TYPE":"U","NORAD_CAT_ID":63806,"ELEMENT_SET_NO":999,"REV_AT_EPOCH":2506,"BSTAR":0.0013307,"MEAN_MOTION_DOT":0.00036581,"MEAN_MOTION_DDOT":0},{"OBJECT_NAME":"STARLINK-34109","OBJECT_ID":"2025-092D","EPOCH":"2025-10-06T10:04:16.718016","MEAN_MOTION":15.27606389,"ECCENTRICITY":8.83e-5,"INCLINATION":43.0011,"RA_OF_ASC_NODE":323.5583,"ARG_OF_PERICENTER":323.1122,"MEAN_ANOMALY":36.9669,"EPHEMERIS_TYPE":0,"CLASSIFICATION_TYPE":"U","NORAD_CAT_ID":63807,"ELEMENT_SET_NO":999,"REV_AT_EPOCH":2502,"BSTAR":0.0011944,"MEAN_MOTION_DOT":0.00032778,"MEAN_MOTION_DDOT":0},{"OBJECT_NAME":"STARLINK-34091","OBJECT_ID":"2025-092E","EPOCH":"2025-10-05T04:52:21.524160","MEAN_MOTION":15.27577655,"ECCENTRICITY":4.2e-5,"INCLINATION":42.9994,"RA_OF_ASC_NODE":330.7689,"ARG_OF_PERICENTER":79.4832,"MEAN_ANOMALY":280.6067,"EPHEMERIS_TYPE":0,"CLASSIFICATION_TYPE":"U","NORAD_CAT_ID":63808,"ELEMENT_SET_NO":999,"REV_AT_EPOCH":2488,"BSTAR":0.0011572,"MEAN_MOTION_DOT":0.00031717,"MEAN_MOTION_DDOT":0},{"OBJECT_NAME":"STARLINK-34095","OBJECT_ID":"2025-092F","EPOCH":"2025-10-06T09:38:36.542976","MEAN_MOTION":15.2758069,"ECCENTRICITY":0.0002354,"INCLINATION":43.0053,"RA_OF_ASC_NODE":324.2921,"ARG_OF_PERICENTER":269.2417,"MEAN_ANOMALY":90.8165,"EPHEMERIS_TYPE":0,"CLASSIFICATION_TYPE":"U","NORAD_CAT_ID":63809,"ELEMENT_SET_NO":999,"REV_AT_EPOCH":2501,"BSTAR":0.00089343,"MEAN_MOTION_DOT":0.00024406,"MEAN_MOTION_DDOT":0},{"OBJECT_NAME":"STARLINK-34127","OBJECT_ID":"2025-092G","EPOCH":"2025-10-06T10:15:24.448320","MEAN_MOTION":15.27589117,"ECCENTRICITY":7.19e-5,"INCLINATION":43.0008,"RA_OF_ASC_NODE":323.6158,"ARG_OF_PERICENTER":256.8075,"MEAN_ANOMALY":103.2696,"EPHEMERIS_TYPE":0,"CLASSIFICATION_TYPE":"U","NORAD_CAT_ID":63810,"ELEMENT_SET_NO":999,"REV_AT_EPOCH":2502,"BSTAR":0.001503,"MEAN_MOTION_DOT":0.00041341,"MEAN_MOTION_DDOT":0},{"OBJECT_NAME":"STARLINK-34110","OBJECT_ID":"2025-092H","EPOCH":"2025-10-06T03:01:37.269120","MEAN_MOTION":15.27600851,"ECCENTRICITY":0.0001288,"INCLINATION":43.0015,"RA_OF_ASC_NODE":325.6605,"ARG_OF_PERICENTER":276.4892,"MEAN_ANOMALY":83.5813,"EPHEMERIS_TYPE":0,"CLASSIFICATION_TYPE":"U","NORAD_CAT_ID":63811,"ELEMENT_SET_NO":999,"REV_AT_EPOCH":2502,"BSTAR":0.00095598,"MEAN_MOTION_DOT":0.00026154,"MEAN_MOTION_DDOT":0}]
